0 THORAD DELTA 1 DEB
1 08164U 74089AE  13280.98922644 -.00000027  00000-0  11789-3 0  9679
2 08164 101.4940 290.2635 0120765 316.5924 097.5353 12.28860382745488
0 THORAD DELTA 1 DEB
1 08164U 74089AE  13283.02674183 -.00000006  00000-0  29722-3 0  9683
2 08164 101.4937 292.1484 0120745 312.7883 111.3060 12.28860298745731
0 THORAD DELTA 1 DEB
1 08164U 74089AE  13285.49321105 -.00000010  00000-0  25914-3 0  9694
2 08164 101.4934 294.4301 0120725 308.1731 222.7349 12.28860552746034
0 THORAD DELTA 1 DEB
1 08164U 74089AE  13287.52859485 -.00000029  00000-0  10227-3 0  9700
2 08164 101.4931 296.3130 0120720 304.3684 227.0799 12.28860793746283
0 THORAD DELTA 1 DEB
1 08164U 74089AE  13289.63269100 -.00000043  00000-0 -12507-4 0  9715
2 08164 101.4931 298.2592 0120721 300.4302 175.4081 12.28860965746541
0 THORAD DELTA 1 DEB
1 08164U 74089AE  13291.97959936 -.00000047  00000-0 -47629-4 0  9726
2 08164 101.4933 300.4299 0120706 296.0433 117.9115 12.28861006746839
0 THORAD DELTA 1 DEB
1 08164U 74089AE  13294.01537395 -.00000035  00000-0  54512-4 0  9731
2 08164 101.4934 302.3128 0120689 292.2397 123.9875 12.28860918747088
